format  = 'OEF2.0'       ! file format
rectype = 'ML'           ! record type (1L/ML)
refsys  = ECLM J2000     ! default reference system
END_OF_HEADER
17030
! Equinoctial elements: a, e*sin(LP), e*cos(LP), tan(i/2)*sin(LN), tan(i/2)*cos(LN), mean long.
 EQU   3.1754732060579491E+00  -0.018962873482153  -0.041272817500319    0.024582276916386   -0.006203125871476  74.4674157271250
 MJD     61000.000000000 TDT
 MAG  13.290  0.150
! Non-grav parameters: model used, actual number in use, dimension
 LSP   0  0    6
! RMS    1.31035E-08   2.89697E-08   3.51801E-08   2.72794E-08   3.20859E-08   4.77682E-06
! EIG   7.32202E-09   2.72650E-08   2.83939E-08   3.20840E-08   3.37508E-08   8.48606E-08
! WEA   0.12368   0.07085   0.13249  -0.00178   0.00945  -0.98083
 COV   1.717027907707450E-16 -1.620816694770209E-18  5.656925685901262E-17
 COV   4.011810223335061E-19  4.544479270241413E-19 -5.035632609223854E-14
 COV   8.392453370844926E-16  9.829182667396695E-17 -2.096975034759860E-18
 COV   3.284826201649561E-18 -2.558088271033263E-14  1.237637549478441E-15
 COV  -3.778875362437655E-18  1.332338109876453E-18 -4.533874414294761E-14
 COV   7.441667696703420E-16  1.439968667335430E-17  6.460905234353402E-16
 COV   1.029505231813499E-15 -3.379757271271349E-15  2.281801883955516E-11
 NOR   1.819714969002835E+16  1.266429988401566E+15  6.377241197238919E+14
 NOR  -4.270447076520712E+13  1.284225593238686E+14  4.286582662336207E+13
 NOR   1.324839943980216E+15 -6.762320112844061E+12 -8.682983401223402E+11
 NOR   9.246292419914932E+12  4.268054711173947E+12  8.959128387857565E+14
 NOR   1.250329522083635E+12  9.006817059230818E+12  3.181242601469499E+12
 NOR   1.344299699073236E+15 -1.922144851949498E+13 -1.336429280393712E+11
 NOR   9.730094899933468E+14  4.563379993143102E+11  1.496014345546527E+11
